{"type": "FeatureCollection", "features": [{"type": "Feature", "properties": {"norad_id": 32275, "name": "COSMOS 2433 (720)", "group": "glo-ops", "lat": -10.325836328642698, "lon": -42.41474918145519, "alt_km": 19132.80338013698, "timestamp": "2025-12-09T07:41:33.468576+00:00", "meta": {"OBJECT_NAME": "COSMOS 2433 (720)", "OBJECT_ID": "2007-052A", "EPOCH": "2025-12-07T22:15:39.436992", "MEAN_MOTION": 2.13103936, "ECCENTRICITY": 0.00054366, "INCLINATION": 65.6859, "RA_OF_ASC_NODE": 322.3673, "ARG_OF_PERICENTER": 253.7081, "MEAN_ANOMALY": 106.2283, "EPHEMERIS_TYPE": 0, "CLASSIFICATION_TYPE": "U", "NORAD_CAT_ID": 32275, "ELEMENT_SET_NO": 999, "REV_AT_EPOCH": 14098, "BSTAR": 0, "MEAN_MOTION_DOT": -4.9e-07, "MEAN_MOTION_DDOT": 0}, "tle": {"line1": "1 32275U 07052A   25341.92753978 -.00000049  00000+0  00000+0 0  9990", "line2": "2 32275  65.6859 322.3673 0005436 253.7081 106.2283  2.13103936140982"}}, "geometry": {"type": "Point", "coordinates": [-42.41474918145519, -10.325836328642698]}}, {"type": "Feature", "properties": {"norad_id": 32276, "name": "COSMOS 2432 (719)", "group": "glo-ops", "lat": -56.99421327675922, "lon": -81.62619317576683, "alt_km": 19108.826827093606, "timestamp": "2025-12-09T07:41:33.468604+00:00", "meta": {"OBJECT_NAME": "COSMOS 2432 (719)", "OBJECT_ID": "2007-052B", "EPOCH": "2025-12-08T02:14:19.806720", "MEAN_MOTION": 2.13103088, "ECCENTRICITY": 0.00112877, "INCLINATION": 65.7017, "RA_OF_ASC_NODE": 322.4859, "ARG_OF_PERICENTER": 312.3782, "MEAN_ANOMALY": 119.1922, "EPHEMERIS_TYPE": 0, "CLASSIFICATION_TYPE": "U", "NORAD_CAT_ID": 32276, "ELEMENT_SET_NO": 999, "REV_AT_EPOCH": 14101, "BSTAR": 0, "MEAN_MOTION_DOT": -4.9e-07, "MEAN_MOTION_DDOT": 0}, "tle": {"line1": "1 32276U 07052B   25342.09328480 -.00000049  00000+0  00000+0 0  9996", "line2": "2 32276  65.7017 322.4859 0011287 312.3782 119.1922  2.13103088141014"}}, "geometry": {"type": "Point", "coordinates": [-81.62619317576683, -56.99421327675922]}}, {"type": "Feature", "properties": {"norad_id": 32393, "name": "COSMOS 2434 (721)", "group": "glo-ops", "lat": -50.72714050764136, "lon": 54.38005575579806, "alt_km": 19146.959560349107, "timestamp": "2025-12-09T07:41:33.468621+00:00", "meta": {"OBJECT_NAME": "COSMOS 2434 (721)", "OBJECT_ID": "2007-065A", "EPOCH": "2025-12-08T05:21:15.731136", "MEAN_MOTION": 2.13101228, "ECCENTRICITY": 0.00044814, "INCLINATION": 64.3148, "RA_OF_ASC_NODE": 198.3559, "ARG_OF_PERICENTER": 71.0536, "MEAN_ANOMALY": 46.2753, "EPHEMERIS_TYPE": 0, "CLASSIFICATION_TYPE": "U", "NORAD_CAT_ID": 32393, "ELEMENT_SET_NO": 999, "REV_AT_EPOCH": 13970, "BSTAR": 0, "MEAN_MOTION_DOT": 5e-07, "MEAN_MOTION_DDOT": 0}, "tle": {"line1": "1 32393U 07065A   25342.22309874  .00000050  00000+0  00000+0 0  9992", "line2": "2 32393  64.3148 198.3559 0004481  71.0536  46.2753  2.13101228139704"}}, "geometry": {"type": "Point", "coordinates": [54.38005575579806, -50.72714050764136]}}, {"type": "Feature", "properties": {"norad_id": 32395, "name": "COSMOS 2436 (723)", "group": "glo-ops", "lat": 11.03720659582389, "lon": -156.2224456508285, "alt_km": 19083.894045504465, "timestamp": "2025-12-09T07:41:33.468635+00:00", "meta": {"OBJECT_NAME": "COSMOS 2436 (723)", "OBJECT_ID": "2007-065C", "EPOCH": "2025-12-08T02:01:11.627904", "MEAN_MOTION": 2.13100022, "ECCENTRICITY": 0.00177472, "INCLINATION": 64.3236, "RA_OF_ASC_NODE": 198.4308, "ARG_OF_PERICENTER": 9.2257, "MEAN_ANOMALY": 134.6131, "EPHEMERIS_TYPE": 0, "CLASSIFICATION_TYPE": "U", "NORAD_CAT_ID": 32395, "ELEMENT_SET_NO": 999, "REV_AT_EPOCH": 13965, "BSTAR": 0, "MEAN_MOTION_DOT": 5.1e-07, "MEAN_MOTION_DDOT": 0}, "tle": {"line1": "1 32395U 07065C   25342.08416236  .00000051  00000+0  00000+0 0  9990", "line2": "2 32395  64.3236 198.4308 0017747   9.2257 134.6131  2.13100022139656"}}, "geometry": {"type": "Point", "coordinates": [-156.2224456508285, 11.03720659582389]}}, {"type": "Feature", "properties": {"norad_id": 36111, "name": "COSMOS 2456 (730)", "group": "glo-ops", "lat": 32.433638867829984, "lon": 94.76462906424628, "alt_km": 19127.043320766494, "timestamp": "2025-12-09T07:41:33.468648+00:00", "meta": {"OBJECT_NAME": "COSMOS 2456 (730)", "OBJECT_ID": "2009-070A", "EPOCH": "2025-12-09T00:01:53.356800", "MEAN_MOTION": 2.13103359, "ECCENTRICITY": 0.00028237, "INCLINATION": 64.8981, "RA_OF_ASC_NODE": 77.466, "ARG_OF_PERICENTER": 298.6083, "MEAN_ANOMALY": 212.7923, "EPHEMERIS_TYPE": 0, "CLASSIFICATION_TYPE": "U", "NORAD_CAT_ID": 36111, "ELEMENT_SET_NO": 999, "REV_AT_EPOCH": 12437, "BSTAR": 0, "MEAN_MOTION_DOT": -1.6e-07, "MEAN_MOTION_DDOT": 0}, "tle": {"line1": "1 36111U 09070A   25343.00131200 -.00000016  00000+0  00000+0 0  9998", "line2": "2 36111  64.8981  77.4660 0002823 298.6083 212.7923  2.13103359124371"}}, "geometry": {"type": "Point", "coordinates": [94.76462906424628, 32.433638867829984]}}, {"type": "Feature", "properties": {"norad_id": 36112, "name": "COSMOS 2457 (733)", "group": "glo-ops", "lat": 13.089899502311756, "lon": -108.9423445290242, "alt_km": 19116.56402034559, "timestamp": "2025-12-09T07:41:33.468660+00:00", "meta": {"OBJECT_NAME": "COSMOS 2457 (733)", "OBJECT_ID": "2009-070B", "EPOCH": "2025-12-08T14:21:11.818944", "MEAN_MOTION": 2.13100771, "ECCENTRICITY": 0.00048663, "INCLINATION": 64.883, "RA_OF_ASC_NODE": 77.3275, "ARG_OF_PERICENTER": 155.8932, "MEAN_ANOMALY": 175.3227, "EPHEMERIS_TYPE": 0, "CLASSIFICATION_TYPE": "U", "NORAD_CAT_ID": 36112, "ELEMENT_SET_NO": 999, "REV_AT_EPOCH": 12436, "BSTAR": 0, "MEAN_MOTION_DOT": -1.5e-07, "MEAN_MOTION_DDOT": 0}, "tle": {"line1": "1 36112U 09070B   25342.59805346 -.00000015  00000+0  00000+0 0  9990", "line2": "2 36112  64.8830  77.3275 0004866 155.8932 175.3227  2.13100771124367"}}, "geometry": {"type": "Point", "coordinates": [-108.9423445290242, 13.089899502311756]}}, {"type": "Feature", "properties": {"norad_id": 36402, "name": "COSMOS 2460 (732)", "group": "glo-ops", "lat": 13.69170391748578, "lon": 134.5102696034354, "alt_km": 19130.32300261656, "timestamp": "2025-12-09T07:41:33.468673+00:00", "meta": {"OBJECT_NAME": "COSMOS 2460 (732)", "OBJECT_ID": "2010-007C", "EPOCH": "2025-12-08T21:00:03.337632", "MEAN_MOTION": 2.13105944, "ECCENTRICITY": 0.00028408, "INCLINATION": 65.5319, "RA_OF_ASC_NODE": 320.9045, "ARG_OF_PERICENTER": 270.8481, "MEAN_ANOMALY": 272.2789, "EPHEMERIS_TYPE": 0, "CLASSIFICATION_TYPE": "U", "NORAD_CAT_ID": 36402, "ELEMENT_SET_NO": 999, "REV_AT_EPOCH": 12267, "BSTAR": 0, "MEAN_MOTION_DOT": -4.8e-07, "MEAN_MOTION_DDOT": 0}, "tle": {"line1": "1 36402U 10007C   25342.87503863 -.00000048  00000+0  00000+0 0  9990", "line2": "2 36402  65.5319 320.9045 0002840 270.8481 272.2789  2.13105944122677"}}, "geometry": {"type": "Point", "coordinates": [134.5102696034354, 13.69170391748578]}}, {"type": "Feature", "properties": {"norad_id": 37867, "name": "COSMOS 2476 (744)", "group": "glo-ops", "lat": -48.09442975970343, "lon": 48.27318103911134, "alt_km": 19115.44364098207, "timestamp": "2025-12-09T07:41:33.468685+00:00", "meta": {"OBJECT_NAME": "COSMOS 2476 (744)", "OBJECT_ID": "2011-064A", "EPOCH": "2025-12-08T12:40:16.683168", "MEAN_MOTION": 2.131013, "ECCENTRICITY": 0.00241182, "INCLINATION": 65.16, "RA_OF_ASC_NODE": 79.314, "ARG_OF_PERICENTER": 233.9995, "MEAN_ANOMALY": 182.6426, "EPHEMERIS_TYPE": 0, "CLASSIFICATION_TYPE": "U", "NORAD_CAT_ID": 37867, "ELEMENT_SET_NO": 999, "REV_AT_EPOCH": 10970, "BSTAR": 0, "MEAN_MOTION_DOT": -1.2e-07, "MEAN_MOTION_DDOT": 0}, "tle": {"line1": "1 37867U 11064A   25342.52797087 -.00000012  00000+0  00000+0 0  9996", "line2": "2 37867  65.1600  79.3140 0024118 233.9995 182.6426  2.13101300109708"}}, "geometry": {"type": "Point", "coordinates": [48.27318103911134, -48.09442975970343]}}, {"type": "Feature", "properties": {"norad_id": 37868, "name": "COSMOS 2477 (745)", "group": "glo-ops", "lat": 47.739113725470844, "lon": -131.21329006866532, "alt_km": 19142.007285787997, "timestamp": "2025-12-09T07:41:33.468706+00:00", "meta": {"OBJECT_NAME": "COSMOS 2477 (745)", "OBJECT_ID": "2011-064B", "EPOCH": "2025-12-08T06:12:22.664160", "MEAN_MOTION": 2.13102704, "ECCENTRICITY": 0.0021182, "INCLINATION": 65.1663, "RA_OF_ASC_NODE": 79.4007, "ARG_OF_PERICENTER": 234.576, "MEAN_ANOMALY": 156.3219, "EPHEMERIS_TYPE": 0, "CLASSIFICATION_TYPE": "U", "NORAD_CAT_ID": 37868, "ELEMENT_SET_NO": 999, "REV_AT_EPOCH": 10969, "BSTAR": 0, "MEAN_MOTION_DOT": -1.1e-07, "MEAN_MOTION_DDOT": 0}, "tle": {"line1": "1 37868U 11064B   25342.25859565 -.00000011  00000+0  00000+0 0  9996", "line2": "2 37868  65.1663  79.4007 0021182 234.5760 156.3219  2.13102704109691"}}, "geometry": {"type": "Point", "coordinates": [-131.21329006866532, 47.739113725470844]}}, {"type": "Feature", "properties": {"norad_id": 37869, "name": "COSMOS 2475 (743)", "group": "glo-ops", "lat": 63.85847573875148, "lon": 149.73359678801017, "alt_km": 19187.778971744647, "timestamp": "2025-12-09T07:41:33.468732+00:00", "meta": {"OBJECT_NAME": "COSMOS 2475 (743)", "OBJECT_ID": "2011-064C", "EPOCH": "2025-12-08T23:53:27.057120", "MEAN_MOTION": 2.131013, "ECCENTRICITY": 0.00260707, "INCLINATION": 65.174, "RA_OF_ASC_NODE": 79.3957, "ARG_OF_PERICENTER": 248.2366, "MEAN_ANOMALY": 303.9156, "EPHEMERIS_TYPE": 0, "CLASSIFICATION_TYPE": "U", "NORAD_CAT_ID": 37869, "ELEMENT_SET_NO": 999, "REV_AT_EPOCH": 10971, "BSTAR": 0, "MEAN_MOTION_DOT": -1.3e-07, "MEAN_MOTION_DDOT": 0}, "tle": {"line1": "1 37869U 11064C   25342.99545205 -.00000013  00000+0  00000+0 0  9993", "line2": "2 37869  65.1740  79.3957 0026070 248.2366 303.9156  2.13101300109710"}}, "geometry": {"type": "Point", "coordinates": [149.73359678801017, 63.85847573875148]}}]}